{
    "links": {
        "self": "http://www.neowsapp.com/rest/v1/neo/3878561?api_key=iIulBulltgU6a56xZRHN4H3l9WmuAYTsLGpBGhQ2"
    },
    "id": "3878561",
    "neo_reference_id": "3878561",
    "name": "(2019 TS1)",
    "designation": "2019 TS1",
    "nasa_jpl_url": "http://ssd.jpl.nasa.gov/sbdb.cgi?sstr=3878561",
    "absolute_magnitude_h": 24.1,
    "estimated_diameter": {
        "kilometers": {
            "estimated_diameter_min": 0.040230458,
            "estimated_diameter_max": 0.0899580388
        },
        "meters": {
            "estimated_diameter_min": 40.2304579834,
            "estimated_diameter_max": 89.9580388169
        },
        "miles": {
            "estimated_diameter_min": 0.0249980399,
            "estimated_diameter_max": 0.0558973165
        },
        "feet": {
            "estimated_diameter_min": 131.9896957704,
            "estimated_diameter_max": 295.1379320721
        }
    },
    "is_potentially_hazardous_asteroid": false,
    "close_approach_data": [
        {
            "close_approach_date": "2019-10-04",
            "close_approach_date_full": "2019-Oct-04 19:24",
            "epoch_date_close_approach": 1570217040000,
            "relative_velocity": {
                "kilometers_per_second": "12.1471432889",
                "kilometers_per_hour": "43729.7158400911",
                "miles_per_hour": "27171.9448229722"
            },
            "miss_distance": {
                "astronomical": "0.1687274621",
                "lunar": "65.6349827569",
                "kilometers": "25241268.940665727",
                "miles": "15684197.2338399526"
            },
            "orbiting_body": "Earth"
        },
        {
            "close_approach_date": "2020-02-29",
            "close_approach_date_full": "2020-Feb-29 09:12",
            "epoch_date_close_approach": 1582967520000,
            "relative_velocity": {
                "kilometers_per_second": "13.9228151597",
                "kilometers_per_hour": "50122.1345747494",
                "miles_per_hour": "31143.9452306269"
            },
            "miss_distance": {
                "astronomical": "0.3151050328",
                "lunar": "122.5758577592",
                "kilometers": "47139041.733160136",
                "miles": "29290842.2985804368"
            },
            "orbiting_body": "Earth"
        }
    ],
    "orbital_data": {
        "orbit_id": "1",
        "orbit_determination_date": "2019-10-05 06:42:07",
        "first_observation_date": "2019-10-03",
        "last_observation_date": "2019-10-05",
        "data_arc_in_days": 2,
        "observations_used": 15,
        "orbit_uncertainty": "9",
        "minimum_orbit_intersection": ".134338",
        "jupiter_tisserand_invariant": "4.883",
        "epoch_osculation": "2458760.5",
        "eccentricity": ".2302510598414964",
        "semi_major_axis": "1.304776647760927",
        "inclination": "23.32354147206876",
        "ascending_node_longitude": "4.365422033645066",
        "orbital_period": "544.3806625704183",
        "perihelion_distance": "1.004350441757539",
        "perihelion_argument": "71.67317644498274",
        "aphelion_distance": "1.605202853764316",
        "perihelion_time": "2458831.513988104729",
        "mean_anomaly": "313.0383103672506",
        "mean_motion": ".6613019615725829",
        "equinox": "J2000",
        "orbit_class": {
            "orbit_class_type": "APO",
            "orbit_class_description": "Near-Earth asteroid orbits which cross the Earth’s orbit similar to that of 1862 Apollo",
            "orbit_class_range": "a (semi-major axis) > 1.0 AU; q (perihelion) < 1.017 AU"
        }
    },
    "is_sentry_object": false
}